{"type": "FeatureCollection", "features": [ {"type": "Feature", "properties": {"norad_id": 66339, "name": "STARLINK-35443", "group": "last-30-days", "lat": 42.980274628394966, "lon": 112.30665091764098, "alt_km": 438.3653341666004, "timestamp": "2025-12-06T09:34:15.697353+00:00", "meta": {"OBJECT_NAME": "STARLINK-35443", "OBJECT_ID": "2025-253W", "EPOCH": "2025-12-05T22:00:03.000096", "MEAN_MOTION": 15.40661805, "ECCENTRICITY": 0.0001722, "INCLINATION": 43.0009, "RA_OF_ASC_NODE": 24.7998, "ARG_OF_PERICENTER": 266.9249, "MEAN_ANOMALY": 26.2024, "EPHEMERIS_TYPE": 0, "CLASSIFICATION_TYPE": "U", "NORAD_CAT_ID": 66339, "ELEMENT_SET_NO": 999, "REV_AT_EPOCH": 588, "BSTAR": 0.0011667986, "MEAN_MOTION_DOT": 0.00048686, "MEAN_MOTION_DDOT": 0}, "tle": {"line1": "1 66339U 25253W   25339.91670139  .00048686  00000+0  11668-2 0  9997", "line2": "2 66339  43.0009  24.7998 0001722 266.9249  26.2024 15.40661805  5887"}}, "geometry": {"type": "Point", "coordinates": [112.30665091764098, 42.980274628394966]}}, {"type": "Feature", "properties": {"norad_id": 66340, "name": "STARLINK-35218", "group": "last-30-days", "lat": -17.75380243364541, "lon": -138.16131140268007, "alt_km": 416.7965524092551, "timestamp": "2025-12-06T09:34:15.697363+00:00", "meta": {"OBJECT_NAME": "STARLINK-35218", "OBJECT_ID": "2025-253X", "EPOCH": "2025-12-05T20:19:04.089504", "MEAN_MOTION": 15.50611536, "ECCENTRICITY": 7.459e-05, "INCLINATION": 42.999, "RA_OF_ASC_NODE": 24.9734, "ARG_OF_PERICENTER": 2.1199, "MEAN_ANOMALY": 357.9664, "EPHEMERIS_TYPE": 0, "CLASSIFICATION_TYPE": "U", "NORAD_CAT_ID": 66340, "ELEMENT_SET_NO": 999, "REV_AT_EPOCH": 586, "BSTAR": 0.0018812169, "MEAN_MOTION_DOT": 0.00111738, "MEAN_MOTION_DDOT": 0}, "tle": {"line1": "1 66340U 25253X   25339.84657511  .00111738  00000+0  18812-2 0  9997", "line2": "2 66340  42.9990  24.9734 0000745   2.1199 357.9664 15.50611536  5863"}}, "geometry": {"type": "Point", "coordinates": [-138.16131140268007, -17.75380243364541]}}, {"type": "Feature", "properties": {"norad_id": 66341, "name": "STARLINK-35522", "group": "last-30-days", "lat": 38.11535548271847, "lon": 144.62604191134767, "alt_km": 439.0105360336984, "timestamp": "2025-12-06T09:34:15.697374+00:00", "meta": {"OBJECT_NAME": "STARLINK-35522", "OBJECT_ID": "2025-253Y", "EPOCH": "2025-12-05T22:00:03.000096", "MEAN_MOTION": 15.40804364, "ECCENTRICITY": 9.709e-05, "INCLINATION": 43.0009, "RA_OF_ASC_NODE": 24.7438, "ARG_OF_PERICENTER": 288.8927, "MEAN_ANOMALY": 29.1069, "EPHEMERIS_TYPE": 0, "CLASSIFICATION_TYPE": "U", "NORAD_CAT_ID": 66341, "ELEMENT_SET_NO": 999, "REV_AT_EPOCH": 592, "BSTAR": -0.0056086176, "MEAN_MOTION_DOT": -0.00228495, "MEAN_MOTION_DDOT": 0}, "tle": {"line1": "1 66341U 25253Y   25339.91670139 -.00228495  00000+0 -56086-2 0  9993", "line2": "2 66341  43.0009  24.7438 0000970 288.8927  29.1069 15.40804364  5924"}}, "geometry": {"type": "Point", "coordinates": [144.62604191134767, 38.11535548271847]}}, {"type": "Feature", "properties": {"norad_id": 66342, "name": "STARLINK-35535", "group": "last-30-days", "lat": 26.226546367748767, "lon": 54.05595692580834, "alt_km": 441.16547362488745, "timestamp": "2025-12-06T09:34:15.697384+00:00", "meta": {"OBJECT_NAME": "STARLINK-35535", "OBJECT_ID": "2025-253Z", "EPOCH": "2025-12-05T22:00:03.000096", "MEAN_MOTION": 15.40650486, "ECCENTRICITY": 0.00019916, "INCLINATION": 43.0008, "RA_OF_ASC_NODE": 24.9204, "ARG_OF_PERICENTER": 237.6333, "MEAN_ANOMALY": 5.7684, "EPHEMERIS_TYPE": 0, "CLASSIFICATION_TYPE": "U", "NORAD_CAT_ID": 66342, "ELEMENT_SET_NO": 999, "REV_AT_EPOCH": 583, "BSTAR": 0.0011125193, "MEAN_MOTION_DOT": 0.00046376, "MEAN_MOTION_DDOT": 0}, "tle": {"line1": "1 66342U 25253Z   25339.91670139  .00046376  00000+0  11125-2 0  9993", "line2": "2 66342  43.0008  24.9204 0001991 237.6333   5.7684 15.40650486  5831"}}, "geometry": {"type": "Point", "coordinates": [54.05595692580834, 26.226546367748767]}}, {"type": "Feature", "properties": {"norad_id": 66343, "name": "STARLINK-35467", "group": "last-30-days", "lat": 2.3308921623509944, "lon": 24.733752439499426, "alt_km": 443.22558147194013, "timestamp": "2025-12-06T09:34:15.697396+00:00", "meta": {"OBJECT_NAME": "STARLINK-35467", "OBJECT_ID": "2025-253AA", "EPOCH": "2025-12-05T10:13:10.196544", "MEAN_MOTION": 15.4068652, "ECCENTRICITY": 0.00016188, "INCLINATION": 43.0002, "RA_OF_ASC_NODE": 27.8393, "ARG_OF_PERICENTER": 247.6341, "MEAN_ANOMALY": 112.4344, "EPHEMERIS_TYPE": 0, "CLASSIFICATION_TYPE": "U", "NORAD_CAT_ID": 66343, "ELEMENT_SET_NO": 999, "REV_AT_EPOCH": 579, "BSTAR": 0.0027904009, "MEAN_MOTION_DOT": 0.00118025, "MEAN_MOTION_DDOT": 0}, "tle": {"line1": "1 66343U 25253AA  25339.42581246  .00118025  00000+0  27904-2 0  9993", "line2": "2 66343  43.0002  27.8393 0001618 247.6341 112.4344 15.40686520  5795"}}, "geometry": {"type": "Point", "coordinates": [24.733752439499426, 2.3308921623509944]}}, {"type": "Feature", "properties": {"norad_id": 66344, "name": "STARLINK-35511", "group": "last-30-days", "lat": -19.257374019548568, "lon": -136.2489024412944, "alt_km": 434.2741069617923, "timestamp": "2025-12-06T09:34:15.697407+00:00", "meta": {"OBJECT_NAME": "STARLINK-35511", "OBJECT_ID": "2025-253AB", "EPOCH": "2025-12-05T22:00:03.000096", "MEAN_MOTION": 15.46693411, "ECCENTRICITY": 0.00013677, "INCLINATION": 43.0004, "RA_OF_ASC_NODE": 24.532, "ARG_OF_PERICENTER": 277.6141, "MEAN_ANOMALY": 125.6183, "EPHEMERIS_TYPE": 0, "CLASSIFICATION_TYPE": "U", "NORAD_CAT_ID": 66344, "ELEMENT_SET_NO": 999, "REV_AT_EPOCH": 583, "BSTAR": -0.045407219, "MEAN_MOTION_DOT": -0.02065394, "MEAN_MOTION_DDOT": 0}, "tle": {"line1": "1 66344U 25253AB  25339.91670139 -.02065394  00000+0 -45407-1 0  9999", "line2": "2 66344  43.0004  24.5320 0001367 277.6141 125.6183 15.46693411  5839"}}, "geometry": {"type": "Point", "coordinates": [-136.2489024412944, -19.257374019548568]}}, {"type": "Feature", "properties": {"norad_id": 66345, "name": "STARLINK-35440", "group": "last-30-days", "lat": 32.705303792523885, "lon": 158.37291408085326, "alt_km": 439.2866217293613, "timestamp": "2025-12-06T09:34:15.697419+00:00", "meta": {"OBJECT_NAME": "STARLINK-35440", "OBJECT_ID": "2025-253AC", "EPOCH": "2025-12-05T22:00:03.000096", "MEAN_MOTION": 15.40667796, "ECCENTRICITY": 0.00010043, "INCLINATION": 43.0009, "RA_OF_ASC_NODE": 24.707, "ARG_OF_PERICENTER": 262.2302, "MEAN_ANOMALY": 68.2094, "EPHEMERIS_TYPE": 0, "CLASSIFICATION_TYPE": "U", "NORAD_CAT_ID": 66345, "ELEMENT_SET_NO": 999, "REV_AT_EPOCH": 583, "BSTAR": 0.0012577698, "MEAN_MOTION_DOT": 0.00052542, "MEAN_MOTION_DDOT": 0}, "tle": {"line1": "1 66345U 25253AC  25339.91670139  .00052542  00000+0  12578-2 0  9991", "line2": "2 66345  43.0009  24.7070 0001004 262.2302  68.2094 15.40667796  5830"}}, "geometry": {"type": "Point", "coordinates": [158.37291408085326, 32.705303792523885]}}, {"type": "Feature", "properties": {"norad_id": 66346, "name": "STARLINK-35482", "group": "last-30-days", "lat": 1.8009452506042498, "lon": -160.1253568530545, "alt_km": 444.8374217320106, "timestamp": "2025-12-06T09:34:15.697430+00:00", "meta": {"OBJECT_NAME": "STARLINK-35482", "OBJECT_ID": "2025-253AD", "EPOCH": "2025-12-05T22:00:03.000096", "MEAN_MOTION": 15.42156674, "ECCENTRICITY": 0.00011628, "INCLINATION": 43.0006, "RA_OF_ASC_NODE": 24.5889, "ARG_OF_PERICENTER": 257.9973, "MEAN_ANOMALY": 121.351, "EPHEMERIS_TYPE": 0, "CLASSIFICATION_TYPE": "U", "NORAD_CAT_ID": 66346, "ELEMENT_SET_NO": 999, "REV_AT_EPOCH": 592, "BSTAR": -0.04738444, "MEAN_MOTION_DOT": -0.01866247, "MEAN_MOTION_DDOT": 0}, "tle": {"line1": "1 66346U 25253AD  25339.91670139 -.01866247  00000+0 -47384-1 0  9992", "line2": "2 66346  43.0006  24.5889 0001162 257.9973 121.3510 15.42156674  5928"}}, "geometry": {"type": "Point", "coordinates": [-160.1253568530545, 1.8009452506042498]}}, {"type": "Feature", "properties": {"norad_id": 66347, "name": "STARLINK-35438", "group": "last-30-days", "lat": -29.364674130442804, "lon": -121.16643830064075, "alt_km": 416.5053720769156, "timestamp": "2025-12-06T09:34:15.697440+00:00", "meta": {"OBJECT_NAME": "STARLINK-35438", "OBJECT_ID": "2025-253AE", "EPOCH": "2025-12-05T12:30:20.055744", "MEAN_MOTION": 15.50620866, "ECCENTRICITY": 8.849e-05, "INCLINATION": 42.9992, "RA_OF_ASC_NODE": 26.8255, "ARG_OF_PERICENTER": 252.8333, "MEAN_ANOMALY": 107.243, "EPHEMERIS_TYPE": 0, "CLASSIFICATION_TYPE": "U", "NORAD_CAT_ID": 66347, "ELEMENT_SET_NO": 999, "REV_AT_EPOCH": 581, "BSTAR": 0.0018916166, "MEAN_MOTION_DOT": 0.00112404, "MEAN_MOTION_DDOT": 0}, "tle": {"line1": "1 66347U 25253AE  25339.52106546  .00112404  00000+0  18916-2 0  9992", "line2": "2 66347  42.9992  26.8255 0000884 252.8333 107.2430 15.50620866  5817"}}, "geometry": {"type": "Point", "coordinates": [-121.16643830064075, -29.364674130442804]}}, {"type": "Feature", "properties": {"norad_id": 66348, "name": "STARLINK-35849", "group": "last-30-days", "lat": 51.954448659139295, "lon": 53.58013953837189, "alt_km": 408.0510928456679, "timestamp": "2025-12-06T09:34:15.697451+00:00", "meta": {"OBJECT_NAME": "STARLINK-35849", "OBJECT_ID": "2025-254A", "EPOCH": "2025-12-05T22:00:03.000096", "MEAN_MOTION": 15.52167342, "ECCENTRICITY": 0.00016757, "INCLINATION": 53.16, "RA_OF_ASC_NODE": 309.2333, "ARG_OF_PERICENTER": 96.5483, "MEAN_ANOMALY": 190.0021, "EPHEMERIS_TYPE": 0, "CLASSIFICATION_TYPE": "U", "NORAD_CAT_ID": 66348, "ELEMENT_SET_NO": 999, "REV_AT_EPOCH": 582, "BSTAR": -0.035011434, "MEAN_MOTION_DOT": -0.01935082, "MEAN_MOTION_DDOT": 0}, "tle": {"line1": "1 66348U 25254A   25339.91670139 -.01935082  00000+0 -35011-1 0  9993", "line2": "2 66348  53.1600 309.2333 0001675  96.5483 190.0021 15.52167342  5825"}}, "geometry": {"type": "Point", "coordinates": [53.58013953837189, 51.954448659139295]}}]}